NAVSTAR 48 (USA 151)    
1 26407U 00040A   26192.68408591  .00000102  00000+0  00000+0 0  9995
2 26407  54.8489 214.1892 0120551 302.6983  28.6662  2.00557796190439
NAVSTAR 51 (USA 166)    
1 27663U 03005A   26192.59094097  .00000103  00000+0  00000+0 0  9997
2 27663  54.8794 213.9991 0148212  53.1585 347.1351  2.00559189171802
NAVSTAR 54 (USA 177)    
1 28190U 04009A   26192.32612622 -.00000008  00000+0  00000+0 0  9994
2 28190  54.8097 274.7111 0117052 174.1471 187.5645  2.00553808163433
NAVSTAR 56 (USA 180)    
1 28474U 04045A   26192.73464934 -.00000085  00000+0  00000+0 0  9990
2 28474  55.1204 323.9078 0170119 316.9752  44.7539  2.00556859158925
NAVSTAR 57 (USA 183)    
1 28874U 05038A   26192.98247549  .00000000  00000+0  00000+0 0  9991
2 28874  54.8581 272.1758 0128173 296.3773 208.8136  2.00563880152337
INMARSAT 4-F2           
1 28899U 05044A   26192.87851152 -.00000261  00000+0  00000+0 0  9994
2 28899   5.1258  43.6537 0002792  59.7098 286.1754  1.00271139 75767
NAVSTAR 58 (USA 190)    
1 29486U 06042A   26192.66875324  .00000030  00000+0  00000+0 0  9993
2 29486  54.7126 150.3670 0107075  55.0446 122.5056  2.00568391144882
NAVSTAR 59 (USA 192)    
1 29601U 06052A   26192.35072326  .00000105  00000+0  00000+0 0  9993
2 29601  54.9326 213.0483 0084794  90.9946 270.0407  2.00559408143897
NAVSTAR 60 (USA 196)    
1 32260U 07047A   26192.15767303 -.00000043  00000+0  00000+0 0  9999
2 32260  54.1126  79.0777 0167652  87.8982 274.0650  2.00554051137298
COSMOS 2433 [GLONASS-M] 
1 32275U 07052A   26191.84776337 -.00000062  00000+0  00000+0 0  9994
2 32275  65.5625 315.1381 0003392 203.0239 156.9646  2.13104163145567
COSMOS 2432 [GLONASS-M] 
1 32276U 07052B   26192.84894738 -.00000064  00000+0  00000+0 0  9994
2 32276  65.5779 315.2327 0007433 323.1578  28.6989  2.13103101145600
NAVSTAR 61 (USA 199)    
1 32384U 07062A   26192.44748571 -.00000003  00000+0  00000+0 0  9997
2 32384  55.0124 273.1765 0036030 167.2486 169.8682  2.00561362135998
COSMOS 2434 [GLONASS-M] 
1 32393U 07065A   26192.61775593  .00000105  00000+0  00000+0 0  9995
2 32393  64.3201 191.0916 0001261 325.8599 154.5630  2.13101327144290
COSMOS 2436 [GLONASS-M] 
1 32395U 07065C   26192.29089645  .00000110  00000+0  00000+0 0  9993
2 32395  64.3285 191.1750 0017323 353.6446   8.2320  2.13100061144247
NAVSTAR 62 (USA 201)    
1 32711U 08012A   26192.56529352  .00000029  00000+0  00000+0 0  9991
2 32711  54.4998 148.9509 0211647 248.1155 109.5888  2.00572989134243
NAVSTAR 64 (USA 206)    
1 35752U 09043A   26192.27430421 -.00000054  00000+0  00000+0 0  9999
2 35752  56.2254  26.5066 0053752  84.2123  73.5929  2.00552906123847
COSMOS 2456 [GLONASS-M] 
1 36111U 09070A   26190.63071153 -.00000025  00000+0  00000+0 0  9998
2 36111  65.0240  70.2070 0003794 337.6713 216.6373  2.13103839128908
COSMOS 2457 [GLONASS-M] 
1 36112U 09070B   26192.98719771 -.00000017  00000+0  00000+0 0  9995
2 36112  65.0111  69.9702 0004041 121.4327 207.8786  2.13101194128956
COSMOS 2460 [GLONASS-M] 
1 36402U 10007C   26192.63988207 -.00000063  00000+0  00000+0 0  9994
2 36402  65.4052 313.6400 0001813 140.7417 284.0802  2.13101671127256
NAVSTAR 65 (USA 213)    
1 36585U 10022A   26192.37366262  .00000105  00000+0  00000+0 0  9991
2 36585  54.2688 207.5878 0126647  66.1538 283.0764  2.00563533118078
BEIDOU-2 IGSO-1         
1 36828U 10036A   26192.85182554 -.00000089  00000+0  00000+0 0  9991
2 36828  54.3064 162.7376 0058925 225.2565 315.6066  1.00264608 58343
BEIDOU-2 G4             
1 37210U 10057A   26192.59664398 -.00000112  00000+0  00000+0 0  9999
2 37210   3.7036  68.7942 0005566 185.0953  50.3442  1.00270060 57537
BEIDOU-2 IGSO-2         
1 37256U 10068A   26192.70453418 -.00000193  00000+0  00000+0 0  9992
2 37256  47.5028 271.5270 0057158 213.6994 166.3305  1.00274707 57043
BEIDOU-2 IGSO-3         
1 37384U 11013A   26192.51462598 -.00000168  00000+0  00000+0 0  9995
2 37384  62.4411  39.9226 0035206 183.2728 358.1795  1.00261228 55902
GSAT-8                  
1 37605U 11022A   26192.86100477  .00000086  00000+0  00000+0 0  9992
2 37605   2.1921  81.5239 0002708 165.6444  47.6313  1.00272028 53467
BEIDOU-2 IGSO-4         
1 37763U 11038A   26192.95235030  .00000001  00000+0  00000+0 0  9995
2 37763  54.6042 165.4533 0160283 231.4099 330.0593  1.00279662 54896
GSAT0101 (GALILEO-PFM)  
1 37846U 11060A   26189.55204449 -.00000074  00000+0  00000+0 0  9995
2 37846  56.9869 341.1826 0002415  60.6868 299.3373  1.70475585 91484
GSAT0102 (GALILEO-FM2)  
1 37847U 11060B   26189.47708995 -.00000074  00000+0  00000+0 0  9992
2 37847  56.9877 341.1851 0002423  11.7755 347.8886  1.70475862 91489
COSMOS 2476 [GLONASS-M] 
1 37867U 11064A   26192.65817440 -.00000019  00000+0  00000+0 0  9997
2 37867  65.2832  72.0458 0022227 236.3365 341.7022  2.13103841114286
COSMOS 2477 [GLONASS-M] 
1 37868U 11064B   26192.37336347 -.00000020  00000+0  00000+0 0  9991
2 37868  65.2897  72.1351 0019225 237.1086 302.7003  2.13103049114279
COSMOS 2475 [GLONASS-M] 
1 37869U 11064C   26192.43169796 -.00000020  00000+0  00000+0 0  9991
2 37869  65.2964  72.1551 0024878 251.3420 288.2380  2.13101872114286
